{
    "links": {
        "self": "http://www.neowsapp.com/rest/v1/neo/3760090?api_key=iIulBulltgU6a56xZRHN4H3l9WmuAYTsLGpBGhQ2"
    },
    "id": "3760090",
    "neo_reference_id": "3760090",
    "name": "(2016 TJ)",
    "designation": "2016 TJ",
    "nasa_jpl_url": "http://ssd.jpl.nasa.gov/sbdb.cgi?sstr=3760090",
    "absolute_magnitude_h": 24.8,
    "estimated_diameter": {
        "kilometers": {
            "estimated_diameter_min": 0.0291443905,
            "estimated_diameter_max": 0.0651688382
        },
        "meters": {
            "estimated_diameter_min": 29.1443904535,
            "estimated_diameter_max": 65.1688382168
        },
        "miles": {
            "estimated_diameter_min": 0.018109479,
            "estimated_diameter_max": 0.0404940262
        },
        "feet": {
            "estimated_diameter_min": 95.6180819754,
            "estimated_diameter_max": 213.8085311752
        }
    },
    "is_potentially_hazardous_asteroid": false,
    "close_approach_data": [
        {
            "close_approach_date": "2013-05-05",
            "close_approach_date_full": "2013-May-05 06:42",
            "epoch_date_close_approach": 1367736120000,
            "relative_velocity": {
                "kilometers_per_second": "16.1213171538",
                "kilometers_per_hour": "58036.7417536627",
                "miles_per_hour": "36061.7743413245"
            },
            "miss_distance": {
                "astronomical": "0.4298411765",
                "lunar": "167.2082176585",
                "kilometers": "64303324.442694055",
                "miles": "39956233.013545759"
            },
            "orbiting_body": "Earth"
        },
        {
            "close_approach_date": "2013-08-30",
            "close_approach_date_full": "2013-Aug-30 01:53",
            "epoch_date_close_approach": 1377827580000,
            "relative_velocity": {
                "kilometers_per_second": "14.7950085908",
                "kilometers_per_hour": "53262.0309270445",
                "miles_per_hour": "33094.9547168627"
            },
            "miss_distance": {
                "astronomical": "0.481833787",
                "lunar": "187.433343143",
                "kilometers": "72081308.22923369",
                "miles": "44789248.028617322"
            },
            "orbiting_body": "Earth"
        },
        {
            "close_approach_date": "2016-04-19",
            "close_approach_date_full": "2016-Apr-19 07:09",
            "epoch_date_close_approach": 1461049740000,
            "relative_velocity": {
                "kilometers_per_second": "12.507182574",
                "kilometers_per_hour": "45025.8572663118",
                "miles_per_hour": "27977.3166997258"
            },
            "miss_distance": {
                "astronomical": "0.3861095197",
                "lunar": "150.1966031633",
                "kilometers": "57761161.733843039",
                "miles": "35891121.6079863782"
            },
            "orbiting_body": "Earth"
        },
        {
            "close_approach_date": "2016-09-26",
            "close_approach_date_full": "2016-Sep-26 16:03",
            "epoch_date_close_approach": 1474905780000,
            "relative_velocity": {
                "kilometers_per_second": "14.4698226139",
                "kilometers_per_hour": "52091.3614098946",
                "miles_per_hour": "32367.5462049425"
            },
            "miss_distance": {
                "astronomical": "0.0458187232",
                "lunar": "17.8234833248",
                "kilometers": "6854383.396839584",
                "miles": "4259116.3449468992"
            },
            "orbiting_body": "Earth"
        }
    ],
    "orbital_data": {
        "orbit_id": "4",
        "orbit_determination_date": "2017-04-06 08:23:29",
        "first_observation_date": "2016-10-01",
        "last_observation_date": "2016-10-09",
        "data_arc_in_days": 8,
        "observations_used": 29,
        "orbit_uncertainty": "8",
        "minimum_orbit_intersection": ".0407928",
        "jupiter_tisserand_invariant": "4.791",
        "epoch_osculation": "2457664.5",
        "eccentricity": ".2794406118192693",
        "semi_major_axis": "1.334004428724946",
        "inclination": "23.72253292308633",
        "ascending_node_longitude": "5.220752211448672",
        "orbital_period": "562.7744004186708",
        "perihelion_distance": ".9612294149924319",
        "perihelion_argument": "308.4924437125688",
        "aphelion_distance": "1.706779442457459",
        "perihelion_time": "2457614.778999190606",
        "mean_anomaly": "31.80592485739513",
        "mean_motion": ".6396879455287614",
        "equinox": "J2000",
        "orbit_class": {
            "orbit_class_type": "APO",
            "orbit_class_description": "Near-Earth asteroid orbits which cross the Earth’s orbit similar to that of 1862 Apollo",
            "orbit_class_range": "a (semi-major axis) > 1.0 AU; q (perihelion) < 1.017 AU"
        }
    },
    "is_sentry_object": false
}